[{"OBJECT_NAME":"BUFENG 1A","OBJECT_ID":"2019-032A","EPOCH":"2026-03-09T22:03:27.507168","MEAN_MOTION":15.26012088,"ECCENTRICITY":0.00054719,"INCLINATION":44.9758,"RA_OF_ASC_NODE":238.6688,"ARG_OF_PERICENTER":55.4463,"MEAN_ANOMALY":304.6935,"EPHEMERIS_TYPE":0,"CLASSIFICATION_TYPE":"U","NORAD_CAT_ID":44310,"ELEMENT_SET_NO":999,"REV_AT_EPOCH":37201,"BSTAR":0.00062413703,"MEAN_MOTION_DOT":0.00016103,"MEAN_MOTION_DDOT":0},{"OBJECT_NAME":"STARLINK-2492","OBJECT_ID":"2021-027BK","EPOCH":"2026-03-10T00:00:02.999808","MEAN_MOTION":15.12197896,"ECCENTRICITY":0.00014351,"INCLINATION":53.0781,"RA_OF_ASC_NODE":150.1649,"ARG_OF_PERICENTER":119.0986,"MEAN_ANOMALY":148.3977,"EPHEMERIS_TYPE":0,"CLASSIFICATION_TYPE":"U","NORAD_CAT_ID":48149,"ELEMENT_SET_NO":999,"REV_AT_EPOCH":569,"BSTAR":0.080173393,"MEAN_MOTION_DOT":0.01517072,"MEAN_MOTION_DDOT":0}]
